{"type": "FeatureCollection", "features": [ {"type": "Feature", "properties": {"norad_id": 30146, "name": "FENGYUN 1C DEB", "group": "fengyun-1c-debris", "lat": 49.25151879143008, "lon": 142.30425698534907, "alt_km": 860.5478709218678, "timestamp": "2025-12-18T23:35:49.334652+00:00", "meta": {"OBJECT_NAME": "FENGYUN 1C DEB", "OBJECT_ID": "1999-025TB", "EPOCH": "2025-12-18T09:49:55.037856", "MEAN_MOTION": 13.86608964, "ECCENTRICITY": 0.01787564, "INCLINATION": 98.0201, "RA_OF_ASC_NODE": 151.2297, "ARG_OF_PERICENTER": 107.1856, "MEAN_ANOMALY": 323.0505, "EPHEMERIS_TYPE": 0, "CLASSIFICATION_TYPE": "U", "NORAD_CAT_ID": 30146, "ELEMENT_SET_NO": 999, "REV_AT_EPOCH": 95496, "BSTAR": 0.00048964765, "MEAN_MOTION_DOT": 6.12e-06, "MEAN_MOTION_DDOT": 0}, "tle": {"line1": "1 30146U 99025TB  25352.40966479  .00000612  00000+0  48965-3 0  9994", "line2": "2 30146  98.0201 151.2297 0178756 107.1856 323.0505 13.86608964954967"}}, "geometry": {"type": "Point", "coordinates": [142.30425698534907, 49.25151879143008]}}, {"type": "Feature", "properties": {"norad_id": 30148, "name": "FENGYUN 1C DEB", "group": "fengyun-1c-debris", "lat": 59.768244974169, "lon": -20.783144096213775, "alt_km": 879.6136206725287, "timestamp": "2025-12-18T23:35:49.334663+00:00", "meta": {"OBJECT_NAME": "FENGYUN 1C DEB", "OBJECT_ID": "1999-025TD", "EPOCH": "2025-12-18T09:27:33.347808", "MEAN_MOTION": 13.88500155, "ECCENTRICITY": 0.01350334, "INCLINATION": 99.5452, "RA_OF_ASC_NODE": 141.8324, "ARG_OF_PERICENTER": 181.6595, "MEAN_ANOMALY": 235.4831, "EPHEMERIS_TYPE": 0, "CLASSIFICATION_TYPE": "U", "NORAD_CAT_ID": 30148, "ELEMENT_SET_NO": 999, "REV_AT_EPOCH": 95595, "BSTAR": 0.0006658069, "MEAN_MOTION_DOT": 8.14e-06, "MEAN_MOTION_DDOT": 0}, "tle": {"line1": "1 30148U 99025TD  25352.39413597  .00000814  00000+0  66581-3 0  9990", "line2": "2 30148  99.5452 141.8324 0135033 181.6595 235.4831 13.88500155955950"}}, "geometry": {"type": "Point", "coordinates": [-20.783144096213775, 59.768244974169]}}, {"type": "Feature", "properties": {"norad_id": 30150, "name": "FENGYUN 1C DEB", "group": "fengyun-1c-debris", "lat": -32.17249290639847, "lon": -56.981307205864965, "alt_km": 975.8649117363857, "timestamp": "2025-12-18T23:35:49.334673+00:00", "meta": {"OBJECT_NAME": "FENGYUN 1C DEB", "OBJECT_ID": "1999-025TF", "EPOCH": "2025-12-17T21:13:21.176832", "MEAN_MOTION": 13.86600499, "ECCENTRICITY": 0.01463977, "INCLINATION": 98.9947, "RA_OF_ASC_NODE": 127.6802, "ARG_OF_PERICENTER": 322.1664, "MEAN_ANOMALY": 169.302, "EPHEMERIS_TYPE": 0, "CLASSIFICATION_TYPE": "U", "NORAD_CAT_ID": 30150, "ELEMENT_SET_NO": 999, "REV_AT_EPOCH": 95529, "BSTAR": 0.00045822707, "MEAN_MOTION_DOT": 5.36e-06, "MEAN_MOTION_DDOT": 0}, "tle": {"line1": "1 30150U 99025TF  25351.88427288  .00000536  00000+0  45823-3 0  9995", "line2": "2 30150  98.9947 127.6802 0146397 322.1664 169.3020 13.86600499955294"}}, "geometry": {"type": "Point", "coordinates": [-56.981307205864965, -32.17249290639847]}}, {"type": "Feature", "properties": {"norad_id": 30151, "name": "FENGYUN 1C DEB", "group": "fengyun-1c-debris", "lat": -29.391355570154687, "lon": 5.902896879197678, "alt_km": 908.1050073525021, "timestamp": "2025-12-18T23:35:49.334684+00:00", "meta": {"OBJECT_NAME": "FENGYUN 1C DEB", "OBJECT_ID": "1999-025TG", "EPOCH": "2025-12-18T12:13:12.642240", "MEAN_MOTION": 13.84480992, "ECCENTRICITY": 0.01632045, "INCLINATION": 99.0631, "RA_OF_ASC_NODE": 0.2871, "ARG_OF_PERICENTER": 263.1959, "MEAN_ANOMALY": 223.9951, "EPHEMERIS_TYPE": 0, "CLASSIFICATION_TYPE": "U", "NORAD_CAT_ID": 30151, "ELEMENT_SET_NO": 999, "REV_AT_EPOCH": 95325, "BSTAR": 0.00050277847, "MEAN_MOTION_DOT": 5.81e-06, "MEAN_MOTION_DDOT": 0}, "tle": {"line1": "1 30151U 99025TG  25352.50917410  .00000581  00000+0  50278-3 0  9997", "line2": "2 30151  99.0631   0.2871 0163204 263.1959 223.9951 13.84480992953252"}}, "geometry": {"type": "Point", "coordinates": [5.902896879197678, -29.391355570154687]}}, {"type": "Feature", "properties": {"norad_id": 30152, "name": "FENGYUN 1C DEB", "group": "fengyun-1c-debris", "lat": 3.832244723997581, "lon": -149.95745746693476, "alt_km": 854.3773146325102, "timestamp": "2025-12-18T23:35:49.334694+00:00", "meta": {"OBJECT_NAME": "FENGYUN 1C DEB", "OBJECT_ID": "1999-025TH", "EPOCH": "2025-12-18T13:15:48.289536", "MEAN_MOTION": 13.96729812, "ECCENTRICITY": 0.01623853, "INCLINATION": 99.0798, "RA_OF_ASC_NODE": 210.2312, "ARG_OF_PERICENTER": 69.3318, "MEAN_ANOMALY": 292.5171, "EPHEMERIS_TYPE": 0, "CLASSIFICATION_TYPE": "U", "NORAD_CAT_ID": 30152, "ELEMENT_SET_NO": 999, "REV_AT_EPOCH": 95459, "BSTAR": 0.0021273437, "MEAN_MOTION_DOT": 3.258e-05, "MEAN_MOTION_DDOT": 0}, "tle": {"line1": "1 30152U 99025TH  25352.55264224  .00003258  00000+0  21273-2 0  9997", "line2": "2 30152  99.0798 210.2312 0162385  69.3318 292.5171 13.96729812954598"}}, "geometry": {"type": "Point", "coordinates": [-149.95745746693476, 3.832244723997581]}}, {"type": "Feature", "properties": {"norad_id": 30153, "name": "FENGYUN 1C DEB", "group": "fengyun-1c-debris", "lat": -40.693907448463214, "lon": -6.841260144147218, "alt_km": 847.7577172000938, "timestamp": "2025-12-18T23:35:49.334705+00:00", "meta": {"OBJECT_NAME": "FENGYUN 1C DEB", "OBJECT_ID": "1999-025TJ", "EPOCH": "2025-12-18T12:11:59.807904", "MEAN_MOTION": 13.78786271, "ECCENTRICITY": 0.02006324, "INCLINATION": 100.4669, "RA_OF_ASC_NODE": 343.488, "ARG_OF_PERICENTER": 350.9918, "MEAN_ANOMALY": 132.8253, "EPHEMERIS_TYPE": 0, "CLASSIFICATION_TYPE": "U", "NORAD_CAT_ID": 30153, "ELEMENT_SET_NO": 999, "REV_AT_EPOCH": 94854, "BSTAR": 0.0010184395, "MEAN_MOTION_DOT": 1.15e-05, "MEAN_MOTION_DDOT": 0}, "tle": {"line1": "1 30153U 99025TJ  25352.50833111  .00001150  00000+0  10184-2 0  9998", "line2": "2 30153 100.4669 343.4880 0200632 350.9918 132.8253 13.78786271948542"}}, "geometry": {"type": "Point", "coordinates": [-6.841260144147218, -40.693907448463214]}}, {"type": "Feature", "properties": {"norad_id": 30154, "name": "FENGYUN 1C DEB", "group": "fengyun-1c-debris", "lat": 9.876532592911415, "lon": 32.6823341746362, "alt_km": 1076.6614975689936, "timestamp": "2025-12-18T23:35:49.334715+00:00", "meta": {"OBJECT_NAME": "FENGYUN 1C DEB", "OBJECT_ID": "1999-025TK", "EPOCH": "2025-12-18T01:10:08.583744", "MEAN_MOTION": 13.86008761, "ECCENTRICITY": 0.01829924, "INCLINATION": 98.4493, "RA_OF_ASC_NODE": 33.3214, "ARG_OF_PERICENTER": 184.316, "MEAN_ANOMALY": 205.8411, "EPHEMERIS_TYPE": 0, "CLASSIFICATION_TYPE": "U", "NORAD_CAT_ID": 30154, "ELEMENT_SET_NO": 999, "REV_AT_EPOCH": 95058, "BSTAR": 0.001303302, "MEAN_MOTION_DOT": 1.672e-05, "MEAN_MOTION_DDOT": 0}, "tle": {"line1": "1 30154U 99025TK  25352.04871046  .00001672  00000+0  13033-2 0  9992", "line2": "2 30154  98.4493  33.3214 0182992 184.3160 205.8411 13.86008761950580"}}, "geometry": {"type": "Point", "coordinates": [32.6823341746362, 9.876532592911415]}}, {"type": "Feature", "properties": {"norad_id": 30155, "name": "FENGYUN 1C DEB", "group": "fengyun-1c-debris", "lat": -43.526677083568536, "lon": 76.03684192177874, "alt_km": 817.690321851418, "timestamp": "2025-12-18T23:35:49.334726+00:00", "meta": {"OBJECT_NAME": "FENGYUN 1C DEB", "OBJECT_ID": "1999-025TL", "EPOCH": "2025-12-18T04:34:35.420736", "MEAN_MOTION": 13.73823835, "ECCENTRICITY": 0.02421097, "INCLINATION": 99.7516, "RA_OF_ASC_NODE": 65.8274, "ARG_OF_PERICENTER": 329.5963, "MEAN_ANOMALY": 29.1328, "EPHEMERIS_TYPE": 0, "CLASSIFICATION_TYPE": "U", "NORAD_CAT_ID": 30155, "ELEMENT_SET_NO": 999, "REV_AT_EPOCH": 93939, "BSTAR": 0.0016685733, "MEAN_MOTION_DOT": 1.882e-05, "MEAN_MOTION_DDOT": 0}, "tle": {"line1": "1 30155U 99025TL  25352.19068774  .00001882  00000+0  16686-2 0  9995", "line2": "2 30155  99.7516  65.8274 0242109 329.5963  29.1328 13.73823835939391"}}, "geometry": {"type": "Point", "coordinates": [76.03684192177874, -43.526677083568536]}}, {"type": "Feature", "properties": {"norad_id": 30156, "name": "FENGYUN 1C DEB", "group": "fengyun-1c-debris", "lat": 8.758552965062766, "lon": -41.74864188623914, "alt_km": 1039.8197171148668, "timestamp": "2025-12-18T23:35:49.334736+00:00", "meta": {"OBJECT_NAME": "FENGYUN 1C DEB", "OBJECT_ID": "1999-025TM", "EPOCH": "2025-12-18T10:16:34.886784", "MEAN_MOTION": 13.80829102, "ECCENTRICITY": 0.0198937, "INCLINATION": 98.9192, "RA_OF_ASC_NODE": 319.1134, "ARG_OF_PERICENTER": 247.5748, "MEAN_ANOMALY": 241.9248, "EPHEMERIS_TYPE": 0, "CLASSIFICATION_TYPE": "U", "NORAD_CAT_ID": 30156, "ELEMENT_SET_NO": 999, "REV_AT_EPOCH": 94769, "BSTAR": 0.00092328827, "MEAN_MOTION_DOT": 1.087e-05, "MEAN_MOTION_DDOT": 0}, "tle": {"line1": "1 30156U 99025TM  25352.42818156  .00001087  00000+0  92329-3 0  9995", "line2": "2 30156  98.9192 319.1134 0198937 247.5748 241.9248 13.80829102947690"}}, "geometry": {"type": "Point", "coordinates": [-41.74864188623914, 8.758552965062766]}}, {"type": "Feature", "properties": {"norad_id": 30157, "name": "FENGYUN 1C DEB", "group": "fengyun-1c-debris", "lat": -69.64038971362437, "lon": 114.60189069131222, "alt_km": 759.2046430166238, "timestamp": "2025-12-18T23:35:49.334746+00:00", "meta": {"OBJECT_NAME": "FENGYUN 1C DEB", "OBJECT_ID": "1999-025TN", "EPOCH": "2025-12-18T05:54:22.891392", "MEAN_MOTION": 14.45176122, "ECCENTRICITY": 0.00371397, "INCLINATION": 98.7167, "RA_OF_ASC_NODE": 89.4254, "ARG_OF_PERICENTER": 177.0451, "MEAN_ANOMALY": 238.3523, "EPHEMERIS_TYPE": 0, "CLASSIFICATION_TYPE": "U", "NORAD_CAT_ID": 30157, "ELEMENT_SET_NO": 999, "REV_AT_EPOCH": 98152, "BSTAR": 0.0017628744, "MEAN_MOTION_DOT": 6.184e-05, "MEAN_MOTION_DDOT": 0}, "tle": {"line1": "1 30157U 99025TN  25352.24609828  .00006184  00000+0  17629-2 0  9992", "line2": "2 30157  98.7167  89.4254 0037139 177.0451 238.3523 14.45176122981520"}}, "geometry": {"type": "Point", "coordinates": [114.60189069131222, -69.64038971362437]}}]}